CCSDS_OMM_VERS = 2.0
CREATION_DATE  = 
ORIGINATOR     = 

OBJECT_NAME    = UNKNOWN
OBJECT_ID      = 
CENTER_NAME    = EARTH
REF_FRAME      = TEME
TIME_SYSTEM    = UTC
MEAN_ELEMENT_THEORY = SGP/SGP4

EPOCH          = 2026-02-05T09:28:11.974656
MEAN_MOTION    = 13.55054910
ECCENTRICITY   = .0056763
INCLINATION    = 100.3205
RA_OF_ASC_NODE = 275.4666
ARG_OF_PERICENTER = 304.9355
MEAN_ANOMALY   = 54.6455

EPHEMERIS_TYPE = 0
CLASSIFICATION_TYPE = U
NORAD_CAT_ID   = 81438
ELEMENT_SET_NO = 999
REV_AT_EPOCH   = 59934
BSTAR          = .48396E-2
MEAN_MOTION_DOT = .3322E-4
MEAN_MOTION_DDOT = 0

CCSDS_OMM_VERS = 2.0
CREATION_DATE  = 
ORIGINATOR     = 

OBJECT_NAME    = UNKNOWN
OBJECT_ID      = 
CENTER_NAME    = EARTH
REF_FRAME      = TEME
TIME_SYSTEM    = UTC
MEAN_ELEMENT_THEORY = SGP/SGP4

EPOCH          = 2026-03-02T04:13:04.844928
MEAN_MOTION    = 12.62648361
ECCENTRICITY   = .05961
INCLINATION    = 67.1627
RA_OF_ASC_NODE = 348.1998
ARG_OF_PERICENTER = 154.3128
MEAN_ANOMALY   = 208.8823

EPHEMERIS_TYPE = 0
CLASSIFICATION_TYPE = U
NORAD_CAT_ID   = 81439
ELEMENT_SET_NO = 999
REV_AT_EPOCH   = 27192
BSTAR          = .11705E-2
MEAN_MOTION_DOT = .367E-5
MEAN_MOTION_DDOT = 0

CCSDS_OMM_VERS = 2.0
CREATION_DATE  = 
ORIGINATOR     = 

OBJECT_NAME    = UNKNOWN
OBJECT_ID      = 
CENTER_NAME    = EARTH
REF_FRAME      = TEME
TIME_SYSTEM    = UTC
MEAN_ELEMENT_THEORY = SGP/SGP4

EPOCH          = 2026-03-03T03:41:32.880192
MEAN_MOTION    = 15.16098238
ECCENTRICITY   = .0023195
INCLINATION    = 66.7884
RA_OF_ASC_NODE = 114.8735
ARG_OF_PERICENTER = 20.1934
MEAN_ANOMALY   = 340.0120

EPHEMERIS_TYPE = 0
CLASSIFICATION_TYPE = U
NORAD_CAT_ID   = 81449
ELEMENT_SET_NO = 999
REV_AT_EPOCH   = 64567
BSTAR          = .65372E-2
MEAN_MOTION_DOT = .129316E-2
MEAN_MOTION_DDOT = 0

CCSDS_OMM_VERS = 2.0
CREATION_DATE  = 
ORIGINATOR     = 

OBJECT_NAME    = UNKNOWN
OBJECT_ID      = 
CENTER_NAME    = EARTH
REF_FRAME      = TEME
TIME_SYSTEM    = UTC
MEAN_ELEMENT_THEORY = SGP/SGP4

EPOCH          = 2026-03-03T05:56:48.495264
MEAN_MOTION    = 14.28997029
ECCENTRICITY   = .0145319
INCLINATION    = 98.9519
RA_OF_ASC_NODE = 341.2597
ARG_OF_PERICENTER = 124.1030
MEAN_ANOMALY   = 33.1695

EPHEMERIS_TYPE = 0
CLASSIFICATION_TYPE = U
NORAD_CAT_ID   = 81478
ELEMENT_SET_NO = 999
REV_AT_EPOCH   = 63443
BSTAR          = .13778E-2
MEAN_MOTION_DOT = .3859E-4
MEAN_MOTION_DDOT = 0

CCSDS_OMM_VERS = 2.0
CREATION_DATE  = 
ORIGINATOR     = 

OBJECT_NAME    = UNKNOWN
OBJECT_ID      = 
CENTER_NAME    = EARTH
REF_FRAME      = TEME
TIME_SYSTEM    = UTC
MEAN_ELEMENT_THEORY = SGP/SGP4

EPOCH          = 2026-03-03T03:54:26.719200
MEAN_MOTION    = 13.56549084
ECCENTRICITY   = .004455
INCLINATION    = 99.9938
RA_OF_ASC_NODE = 300.9994
ARG_OF_PERICENTER = 159.4309
MEAN_ANOMALY   = 352.8371

EPHEMERIS_TYPE = 0
CLASSIFICATION_TYPE = U
NORAD_CAT_ID   = 81488
ELEMENT_SET_NO = 999
REV_AT_EPOCH   = 60753
BSTAR          = .34814E-3
MEAN_MOTION_DOT = .201E-5
MEAN_MOTION_DDOT = 0

CCSDS_OMM_VERS = 2.0
CREATION_DATE  = 
ORIGINATOR     = 

OBJECT_NAME    = UNKNOWN
OBJECT_ID      = 
CENTER_NAME    = EARTH
REF_FRAME      = TEME
TIME_SYSTEM    = UTC
MEAN_ELEMENT_THEORY = SGP/SGP4

EPOCH          = 2026-03-01T23:31:12.157248
MEAN_MOTION    = 13.84808267
ECCENTRICITY   = .0027031
INCLINATION    = 100.2999
RA_OF_ASC_NODE = 328.2356
ARG_OF_PERICENTER = 170.1750
MEAN_ANOMALY   = 255.6004

EPHEMERIS_TYPE = 0
CLASSIFICATION_TYPE = U
NORAD_CAT_ID   = 81497
ELEMENT_SET_NO = 999
REV_AT_EPOCH   = 22726
BSTAR          = .33385E-2
MEAN_MOTION_DOT = .3724E-4
MEAN_MOTION_DDOT = 0

CCSDS_OMM_VERS = 2.0
CREATION_DATE  = 
ORIGINATOR     = 

OBJECT_NAME    = UNKNOWN
OBJECT_ID      = 
CENTER_NAME    = EARTH
REF_FRAME      = TEME
TIME_SYSTEM    = UTC
MEAN_ELEMENT_THEORY = SGP/SGP4

EPOCH          = 2026-03-03T10:25:52.167648
MEAN_MOTION    = 14.47653107
ECCENTRICITY   = .0002874
INCLINATION    = 74.0473
RA_OF_ASC_NODE = 70.2915
ARG_OF_PERICENTER = 239.4746
MEAN_ANOMALY   = 120.6130

EPHEMERIS_TYPE = 0
CLASSIFICATION_TYPE = U
NORAD_CAT_ID   = 81499
ELEMENT_SET_NO = 999
REV_AT_EPOCH   = 49409
BSTAR          = .98592E-3
MEAN_MOTION_DOT = .361E-4
MEAN_MOTION_DDOT = 0

CCSDS_OMM_VERS = 2.0
CREATION_DATE  = 
ORIGINATOR     = 

OBJECT_NAME    = UNKNOWN
OBJECT_ID      = 
CENTER_NAME    = EARTH
REF_FRAME      = TEME
TIME_SYSTEM    = UTC
MEAN_ELEMENT_THEORY = SGP/SGP4

EPOCH          = 2026-02-28T15:39:12.400704
MEAN_MOTION    = 14.13624769
ECCENTRICITY   = .0233465
INCLINATION    = 98.1914
RA_OF_ASC_NODE = 140.4812
ARG_OF_PERICENTER = 283.1073
MEAN_ANOMALY   = 74.4143

EPHEMERIS_TYPE = 0
CLASSIFICATION_TYPE = U
NORAD_CAT_ID   = 81535
ELEMENT_SET_NO = 999
REV_AT_EPOCH   = 39840
BSTAR          = .4222E-3
MEAN_MOTION_DOT = .99E-5
MEAN_MOTION_DDOT = 0

CCSDS_OMM_VERS = 2.0
CREATION_DATE  = 
ORIGINATOR     = 

OBJECT_NAME    = UNKNOWN
OBJECT_ID      = 
CENTER_NAME    = EARTH
REF_FRAME      = TEME
TIME_SYSTEM    = UTC
MEAN_ELEMENT_THEORY = SGP/SGP4

EPOCH          = 2026-03-03T14:03:07.384896
MEAN_MOTION    = 12.55972919
ECCENTRICITY   = .0018077
INCLINATION    = 101.9677
RA_OF_ASC_NODE = 289.6302
ARG_OF_PERICENTER = 124.4323
MEAN_ANOMALY   = 264.8436

EPHEMERIS_TYPE = 0
CLASSIFICATION_TYPE = U
NORAD_CAT_ID   = 81536
ELEMENT_SET_NO = 999
REV_AT_EPOCH   = 56196
BSTAR          = .37101E-2
MEAN_MOTION_DOT = .564E-5
MEAN_MOTION_DDOT = 0

CCSDS_OMM_VERS = 2.0
CREATION_DATE  = 
ORIGINATOR     = 

OBJECT_NAME    = UNKNOWN
OBJECT_ID      = 
CENTER_NAME    = EARTH
REF_FRAME      = TEME
TIME_SYSTEM    = UTC
MEAN_ELEMENT_THEORY = SGP/SGP4

EPOCH          = 2026-03-02T08:52:38.100288
MEAN_MOTION    = 14.07156543
ECCENTRICITY   = .0075868
INCLINATION    = 71.0398
RA_OF_ASC_NODE = 304.5004
ARG_OF_PERICENTER = 31.0100
MEAN_ANOMALY   = 329.5464

EPHEMERIS_TYPE = 0
CLASSIFICATION_TYPE = U
NORAD_CAT_ID   = 81537
ELEMENT_SET_NO = 999
REV_AT_EPOCH   = 63166
BSTAR          = .19949E-3
MEAN_MOTION_DOT = .297E-5
MEAN_MOTION_DDOT = 0

CCSDS_OMM_VERS = 2.0
CREATION_DATE  = 
ORIGINATOR     = 

OBJECT_NAME    = UNKNOWN
OBJECT_ID      = 
CENTER_NAME    = EARTH
REF_FRAME      = TEME
TIME_SYSTEM    = UTC
MEAN_ELEMENT_THEORY = SGP/SGP4

EPOCH          = 2026-03-02T13:33:18.761472
MEAN_MOTION    = 13.31539105
ECCENTRICITY   = .0246381
INCLINATION    = 67.2933
RA_OF_ASC_NODE = 108.2804
ARG_OF_PERICENTER = 25.3108
MEAN_ANOMALY   = 125.2996

EPHEMERIS_TYPE = 0
CLASSIFICATION_TYPE = U
NORAD_CAT_ID   = 81599
ELEMENT_SET_NO = 999
REV_AT_EPOCH   = 59570
BSTAR          = .20167E-3
MEAN_MOTION_DOT = .52E-6
MEAN_MOTION_DDOT = 0

CCSDS_OMM_VERS = 2.0
CREATION_DATE  = 
ORIGINATOR     = 

OBJECT_NAME    = UNKNOWN
OBJECT_ID      = 
CENTER_NAME    = EARTH
REF_FRAME      = TEME
TIME_SYSTEM    = UTC
MEAN_ELEMENT_THEORY = SGP/SGP4

EPOCH          = 2026-03-03T04:05:33.067104
MEAN_MOTION    = 12.81434570
ECCENTRICITY   = .0150635
INCLINATION    = 56.4348
RA_OF_ASC_NODE = 345.6997
ARG_OF_PERICENTER = 250.6305
MEAN_ANOMALY   = 107.8283

EPHEMERIS_TYPE = 0
CLASSIFICATION_TYPE = U
NORAD_CAT_ID   = 81605
ELEMENT_SET_NO = 999
REV_AT_EPOCH   = 19651
BSTAR          = -.72951E-2
MEAN_MOTION_DOT = -.1881E-4
MEAN_MOTION_DDOT = 0

